start=new Date('2022-12-17T00:00:00.000Z').valueOf();
sats=[{"SEMIMAJOR_AXIS":"6941.116","MEAN_MOTION_DOT":"0.00002564","OBJECT_TYPE":"PAYLOAD","EPHEMERIS_TYPE":"0","PERIAPSIS":"561.289","FILE":"3705029","REF_FRAME":"TEME","REV_AT_EPOCH":"1635","CENTER_NAME":"EARTH","GP_ID":"220665462","OBJECT_ID":"2022-105K","TLE_LINE2":"2 53657  97.6578 229.4477 0002437  49.2525 310.8911 15.01270148 16355","ARG_OF_PERICENTER":"49.2525","OBJECT_NAME":"STARLINK-4469","RA_OF_ASC_NODE":"229.4477","CLASSIFICATION_TYPE":"U","ELEMENT_SET_NO":"999","MEAN_MOTION_DDOT":"0.0000000000000","INCLINATION":"97.6578","MEAN_ELEMENT_THEORY":"SGP4","LAUNCH_DATE":"2022-08-31","APOAPSIS":"564.672","BSTAR":"0.00020405000000","ECCENTRICITY":"0.00024370","TLE_LINE1":"1 53657U 22105K   22350.75335088  .00002564  00000-0  20405-3 0  9998","PERIOD":"95.919","DECAY_DATE":null,"EPOCH":"2022-12-16T18:04:49.516032","NORAD_CAT_ID":"53657","SITE":"AFWTR","MEAN_ANOMALY":"310.8911","TIME_SYSTEM":"UTC","RCS_SIZE":"LARGE","MEAN_MOTION":"15.01270148","COUNTRY_CODE":"US"},{"CLASSIFICATION_TYPE":"U","ELEMENT_SET_NO":"999","MEAN_MOTION_DDOT":"0.0000000000000","RA_OF_ASC_NODE":"229.3806","OBJECT_NAME":"STARLINK-4452","ARG_OF_PERICENTER":"60.5649","GP_ID":"220665223","OBJECT_ID":"2022-105L","TLE_LINE2":"2 53658  97.6571 229.3806 0002023  60.5649 299.5777 15.01276781 16349","REV_AT_EPOCH":"1634","CENTER_NAME":"EARTH","REF_FRAME":"TEME","FILE":"3705029","PERIAPSIS":"561.556","EPHEMERIS_TYPE":"0","SEMIMAJOR_AXIS":"6941.095","MEAN_MOTION_DOT":"0.00005839","OBJECT_TYPE":"PAYLOAD","COUNTRY_CODE":"US","MEAN_MOTION":"15.01276781","MEAN_ANOMALY":"299.5777","SITE":"AFWTR","NORAD_CAT_ID":"53658","TIME_SYSTEM":"UTC","RCS_SIZE":"LARGE","EPOCH":"2022-12-16T16:20:51.975168","DECAY_DATE":null,"PERIOD":"95.918","TLE_LINE1":"1 53658U 22105L   22350.68115712  .00005839  00000-0  45862-3 0  9993","BSTAR":"0.00045862000000","ECCENTRICITY":"0.00020230","APOAPSIS":"564.364","LAUNCH_DATE":"2022-08-31","MEAN_ELEMENT_THEORY":"SGP4","INCLINATION":"97.6571"},{"EPHEMERIS_TYPE":"0","OBJECT_TYPE":"PAYLOAD","MEAN_MOTION_DOT":"0.00001794","SEMIMAJOR_AXIS":"6941.136","REF_FRAME":"TEME","FILE":"3705029","PERIAPSIS":"561.445","OBJECT_NAME":"STARLINK-4463","ARG_OF_PERICENTER":"56.9306","TLE_LINE2":"2 53659  97.6584 229.3794 0002242  56.9306 303.2133 15.01263571 16344","GP_ID":"220666285","OBJECT_ID":"2022-105M","CENTER_NAME":"EARTH","REV_AT_EPOCH":"1634","ELEMENT_SET_NO":"999","MEAN_MOTION_DDOT":"0.0000000000000","CLASSIFICATION_TYPE":"U","RA_OF_ASC_NODE":"229.3794","APOAPSIS":"564.557","LAUNCH_DATE":"2022-08-31","MEAN_ELEMENT_THEORY":"SGP4","INCLINATION":"97.6584","DECAY_DATE":null,"PERIOD":"95.919","TLE_LINE1":"1 53659U 22105M   22350.68299637  .00001794  00000-0  14423-3 0  9998","ECCENTRICITY":"0.00022420","BSTAR":"0.00014423000000","RCS_SIZE":"LARGE","TIME_SYSTEM":"UTC","SITE":"AFWTR","NORAD_CAT_ID":"53659","MEAN_ANOMALY":"303.2133","EPOCH":"2022-12-16T16:23:30.886368","COUNTRY_CODE":"US","MEAN_MOTION":"15.01263571"},{"PERIAPSIS":"561.474","FILE":"3705029","REF_FRAME":"TEME","SEMIMAJOR_AXIS":"6941.158","OBJECT_TYPE":"PAYLOAD","MEAN_MOTION_DOT":"0.00000469","EPHEMERIS_TYPE":"0","RA_OF_ASC_NODE":"229.3748","CLASSIFICATION_TYPE":"U","ELEMENT_SET_NO":"999","MEAN_MOTION_DDOT":"0.0000000000000","REV_AT_EPOCH":"1634","CENTER_NAME":"EARTH","GP_ID":"220666075","OBJECT_ID":"2022-105N","TLE_LINE2":"2 53660  97.6561 229.3748 0002231  55.1633 304.9801 15.01256508 16344","OBJECT_NAME":"STARLINK-4473","ARG_OF_PERICENTER":"55.1633","BSTAR":"0.00004107800000","ECCENTRICITY":"0.00022310","TLE_LINE1":"1 53660U 22105N   22350.67560064  .00000469  00000-0  41078-4 0  9999","PERIOD":"95.920","DECAY_DATE":null,"INCLINATION":"97.6561","MEAN_ELEMENT_THEORY":"SGP4","LAUNCH_DATE":"2022-08-31","APOAPSIS":"564.571","MEAN_MOTION":"15.01256508","COUNTRY_CODE":"US","EPOCH":"2022-12-16T16:12:51.895296","NORAD_CAT_ID":"53660","SITE":"AFWTR","MEAN_ANOMALY":"304.9801","TIME_SYSTEM":"UTC","RCS_SIZE":"LARGE"},{"RA_OF_ASC_NODE":"229.4457","CLASSIFICATION_TYPE":"U","MEAN_MOTION_DDOT":"0.0000000000000","ELEMENT_SET_NO":"999","GP_ID":"220665016","OBJECT_ID":"2022-105P","TLE_LINE2":"2 53661  97.6570 229.4457 0002310  45.3660 314.7752 15.01267078 16351","REV_AT_EPOCH":"1635","CENTER_NAME":"EARTH","OBJECT_NAME":"STARLINK-4472","ARG_OF_PERICENTER":"45.3660","PERIAPSIS":"561.387","REF_FRAME":"TEME","FILE":"3705029","SEMIMAJOR_AXIS":"6941.125","MEAN_MOTION_DOT":"0.00001493","OBJECT_TYPE":"PAYLOAD","EPHEMERIS_TYPE":"0","MEAN_MOTION":"15.01267078","COUNTRY_CODE":"US","NORAD_CAT_ID":"53661","SITE":"AFWTR","MEAN_ANOMALY":"314.7752","TIME_SYSTEM":"UTC","RCS_SIZE":"LARGE","EPOCH":"2022-12-16T17:54:09.898560","TLE_LINE1":"1 53661U 22105P   22350.74594790  .00001493  00000-0  12075-3 0  9993","BSTAR":"0.00012075000000","ECCENTRICITY":"0.00023100","DECAY_DATE":null,"PERIOD":"95.919","INCLINATION":"97.6570","APOAPSIS":"564.593","LAUNCH_DATE":"2022-08-31","MEAN_ELEMENT_THEORY":"SGP4"},{"DECAY_DATE":null,"PERIOD":"95.919","TLE_LINE1":"1 53662U 22105Q   22350.73854017  .00001627  00000-0  13119-3 0  9993","BSTAR":"0.00013119000000","ECCENTRICITY":"0.00023570","APOAPSIS":"564.626","LAUNCH_DATE":"2022-08-31","MEAN_ELEMENT_THEORY":"SGP4","INCLINATION":"97.6581","COUNTRY_CODE":"US","MEAN_MOTION":"15.01267192","SITE":"AFWTR","NORAD_CAT_ID":"53662","MEAN_ANOMALY":"314.5637","TIME_SYSTEM":"UTC","RCS_SIZE":"LARGE","EPOCH":"2022-12-16T17:43:29.870688","REF_FRAME":"TEME","FILE":"3705029","PERIAPSIS":"561.354","EPHEMERIS_TYPE":"0","SEMIMAJOR_AXIS":"6941.125","MEAN_MOTION_DOT":"0.00001627","OBJECT_TYPE":"PAYLOAD","CLASSIFICATION_TYPE":"U","MEAN_MOTION_DDOT":"0.0000000000000","ELEMENT_SET_NO":"999","RA_OF_ASC_NODE":"229.4334","OBJECT_NAME":"STARLINK-4357","ARG_OF_PERICENTER":"45.5780","OBJECT_ID":"2022-105Q","GP_ID":"220665671","TLE_LINE2":"2 53662  97.6581 229.4334 0002357  45.5780 314.5637 15.01267192 16351","REV_AT_EPOCH":"1635","CENTER_NAME":"EARTH"},{"CLASSIFICATION_TYPE":"U","MEAN_MOTION_DDOT":"0.0000000000000","ELEMENT_SET_NO":"999","RA_OF_ASC_NODE":"229.3791","ARG_OF_PERICENTER":"74.0300","OBJECT_NAME":"STARLINK-4457","GP_ID":"220665881","OBJECT_ID":"2022-105R","TLE_LINE2":"2 53663  97.6569 229.3791 0002193  74.0300 286.1166 15.01264350 16340","REV_AT_EPOCH":"1634","CENTER_NAME":"EARTH","REF_FRAME":"TEME","FILE":"3705029","PERIAPSIS":"561.476","EPHEMERIS_TYPE":"0","SEMIMAJOR_AXIS":"6941.133","MEAN_MOTION_DOT":"0.00000637","OBJECT_TYPE":"PAYLOAD","COUNTRY_CODE":"US","MEAN_MOTION":"15.01264350","MEAN_ANOMALY":"286.1166","SITE":"AFWTR","NORAD_CAT_ID":"53663","TIME_SYSTEM":"UTC","RCS_SIZE":"LARGE","EPOCH":"2022-12-16T16:15:31.778496","DECAY_DATE":null,"PERIOD":"95.919","TLE_LINE1":"1 53663U 22105R   22350.67745114  .00000637  00000-0  54158-4 0  9993","BSTAR":"0.00005415800000","ECCENTRICITY":"0.00021930","APOAPSIS":"564.521","MEAN_ELEMENT_THEORY":"SGP4","LAUNCH_DATE":"2022-08-31","INCLINATION":"97.6569"},{"COUNTRY_CODE":"US","MEAN_MOTION":"15.01261774","EPOCH":"2022-12-16T17:40:50.310624","RCS_SIZE":"LARGE","SITE":"AFWTR","NORAD_CAT_ID":"53664","MEAN_ANOMALY":"320.4574","TIME_SYSTEM":"UTC","PERIOD":"95.919","DECAY_DATE":null,"ECCENTRICITY":"0.00024600","BSTAR":"0.00008166600000","TLE_LINE1":"1 53664U 22105S   22350.73669341  .00000990  00000-0  81666-4 0  9994","MEAN_ELEMENT_THEORY":"SGP4","LAUNCH_DATE":"2022-08-31","APOAPSIS":"564.714","INCLINATION":"97.6559","ELEMENT_SET_NO":"999","MEAN_MOTION_DDOT":"0.0000000000000","CLASSIFICATION_TYPE":"U","RA_OF_ASC_NODE":"229.4259","ARG_OF_PERICENTER":"39.6830","OBJECT_NAME":"STARLINK-4471","CENTER_NAME":"EARTH","REV_AT_EPOCH":"1635","TLE_LINE2":"2 53664  97.6559 229.4259 0002460  39.6830 320.4574 15.01261774 16355","OBJECT_ID":"2022-105S","GP_ID":"220666481","FILE":"3705029","REF_FRAME":"TEME","PERIAPSIS":"561.299","EPHEMERIS_TYPE":"0","OBJECT_TYPE":"PAYLOAD","MEAN_MOTION_DOT":"0.00000990","SEMIMAJOR_AXIS":"6941.141"},{"COUNTRY_CODE":"US","MEAN_MOTION":"15.01262452","EPOCH":"2022-12-16T17:46:32.214432","MEAN_ANOMALY":"304.6036","SITE":"AFWTR","NORAD_CAT_ID":"53665","TIME_SYSTEM":"UTC","RCS_SIZE":"LARGE","PERIOD":"95.919","DECAY_DATE":null,"BSTAR":"0.00005183600000","ECCENTRICITY":"0.00024040","TLE_LINE1":"1 53665U 22105T   22350.74065063  .00000607  00000-0  51836-4 0  9998","MEAN_ELEMENT_THEORY":"SGP4","LAUNCH_DATE":"2022-08-31","APOAPSIS":"564.673","INCLINATION":"97.6572","CLASSIFICATION_TYPE":"U","MEAN_MOTION_DDOT":"0.0000000000000","ELEMENT_SET_NO":"999","RA_OF_ASC_NODE":"229.4416","ARG_OF_PERICENTER":"55.5415","OBJECT_NAME":"STARLINK-4334","REV_AT_EPOCH":"1635","CENTER_NAME":"EARTH","GP_ID":"220665463","OBJECT_ID":"2022-105T","TLE_LINE2":"2 53665  97.6572 229.4416 0002404  55.5415 304.6036 15.01262452 16351","FILE":"3705029","REF_FRAME":"TEME","PERIAPSIS":"561.336","EPHEMERIS_TYPE":"0","SEMIMAJOR_AXIS":"6941.139","MEAN_MOTION_DOT":"0.00000607","OBJECT_TYPE":"PAYLOAD"},{"INCLINATION":"97.6525","APOAPSIS":"564.536","MEAN_ELEMENT_THEORY":"SGP4","LAUNCH_DATE":"2022-08-31","TLE_LINE1":"1 53666U 22105U   22350.73324298 -.00001315  00000-0 -97852-4 0  9993","BSTAR":"-0.00009785200000","ECCENTRICITY":"0.00021590","DECAY_DATE":null,"PERIOD":"95.920","SITE":"AFWTR","NORAD_CAT_ID":"53666","MEAN_ANOMALY":"318.7234","TIME_SYSTEM":"UTC","RCS_SIZE":"LARGE","EPOCH":"2022-12-16T17:35:52.193472","MEAN_MOTION":"15.01251624","COUNTRY_CODE":"US","SEMIMAJOR_AXIS":"6941.173","MEAN_MOTION_DOT":"-0.00001315","OBJECT_TYPE":"PAYLOAD","EPHEMERIS_TYPE":"0","PERIAPSIS":"561.539","REF_FRAME":"TEME","FILE":"3705029","OBJECT_ID":"2022-105U","GP_ID":"220665224","TLE_LINE2":"2 53666  97.6525 229.4101 0002159  41.4153 318.7234 15.01251624 16356","REV_AT_EPOCH":"1635","CENTER_NAME":"EARTH","OBJECT_NAME":"STARLINK-4449","ARG_OF_PERICENTER":"41.4153","RA_OF_ASC_NODE":"229.4101","CLASSIFICATION_TYPE":"U","ELEMENT_SET_NO":"999","MEAN_MOTION_DDOT":"0.0000000000000"}];
